STARLINK-2624           
1 48358U 21038F   26068.23955829 -.00004096  00000+0 -12629-3 0  9990
2 48358  53.1620   0.2505 0001186  92.5071 267.6066 15.30187215267000
PHISAT 2                
1 60470U 24149C   26068.78834181  .00008925  00000+0  31421-3 0  9996
2 60470  97.3806 148.6498 0001175 168.6230 191.5037 15.29548631 86792
